IRIDIUM 63              
1 25286U 98021B   25131.88865854  .00000464  00000+0  15155-3 0  9990
2 25286  86.3952  97.3603 0002419  84.5564 275.5909 14.36517545418634
IRIDIUM 69              
1 25319U 98026A   25132.22084049  .00000524  00000+0  15715-3 0  9999
2 25319  86.3943 110.6227 0004169 115.5462 244.6169 14.40933762418125
IRIDIUM 71              
1 25320U 98026B   25131.88530320  .00000482  00000+0  14354-3 0  9991
2 25320  86.3940 105.4601 0002297 143.2652 216.8706 14.41127877418368
IRIDIUM 73              
1 25344U 98032C   25131.80510100  .00000677  00000+0  16383-3 0  9990
2 25344  86.4422  62.2650 0002951  92.8553 267.2990 14.51674044425288
IRIDIUM 82              
1 25467U 98051A   25132.48092465  .00026506  00000+0  78881-3 0  9991
2 25467  86.3646 127.2718 0091678  73.1981 287.9300 15.30419132418491
