<?xml version="1.0" encoding="UTF-8"?>
<ndm xmlns:xsi="http://www.w3.org/2001/XMLSchema-instance" xsi:noNamespaceSchemaLocation="https://sanaregistry.org/r/ndmxml_unqualified/ndmxml-2.0.0-master-2.0.xsd">
<omm id="CCSDS_OMM_VERS" version="2.0">
<header><CREATION_DATE/><ORIGINATOR/></header><body><segment><metadata><OBJECT_NAME>IRIDIUM 63</OBJECT_NAME><OBJECT_ID>1998-021B</OBJECT_ID><CENTER_NAME>EARTH</CENTER_NAME><REF_FRAME>TEME</REF_FRAME><TIME_SYSTEM>UTC</TIME_SYSTEM><MEAN_ELEMENT_THEORY>SGP4</MEAN_ELEMENT_THEORY></metadata><data><meanElements><EPOCH>2025-05-11T21:19:40.097856</EPOCH><MEAN_MOTION>14.36517545</MEAN_MOTION><ECCENTRICITY>.0002419</ECCENTRICITY><INCLINATION>86.3952</INCLINATION><RA_OF_ASC_NODE>97.3603</RA_OF_ASC_NODE><ARG_OF_PERICENTER>84.5564</ARG_OF_PERICENTER><MEAN_ANOMALY>275.5909</MEAN_ANOMALY></meanElements><tleParameters><EPHEMERIS_TYPE>0</EPHEMERIS_TYPE><CLASSIFICATION_TYPE>U</CLASSIFICATION_TYPE><NORAD_CAT_ID>25286</NORAD_CAT_ID><ELEMENT_SET_NO>999</ELEMENT_SET_NO><REV_AT_EPOCH>41863</REV_AT_EPOCH><BSTAR>.15155E-3</BSTAR><MEAN_MOTION_DOT>.464E-5</MEAN_MOTION_DOT><MEAN_MOTION_DDOT>0</MEAN_MOTION_DDOT></tleParameters></data></segment></body></omm>
<omm id="CCSDS_OMM_VERS" version="2.0">
<header><CREATION_DATE/><ORIGINATOR/></header><body><segment><metadata><OBJECT_NAME>IRIDIUM 69</OBJECT_NAME><OBJECT_ID>1998-026A</OBJECT_ID><CENTER_NAME>EARTH</CENTER_NAME><REF_FRAME>TEME</REF_FRAME><TIME_SYSTEM>UTC</TIME_SYSTEM><MEAN_ELEMENT_THEORY>SGP4</MEAN_ELEMENT_THEORY></metadata><data><meanElements><EPOCH>2025-05-12T05:18:00.618336</EPOCH><MEAN_MOTION>14.40933762</MEAN_MOTION><ECCENTRICITY>.0004169</ECCENTRICITY><INCLINATION>86.3943</INCLINATION><RA_OF_ASC_NODE>110.6227</RA_OF_ASC_NODE><ARG_OF_PERICENTER>115.5462</ARG_OF_PERICENTER><MEAN_ANOMALY>244.6169</MEAN_ANOMALY></meanElements><tleParameters><EPHEMERIS_TYPE>0</EPHEMERIS_TYPE><CLASSIFICATION_TYPE>U</CLASSIFICATION_TYPE><NORAD_CAT_ID>25319</NORAD_CAT_ID><ELEMENT_SET_NO>999</ELEMENT_SET_NO><REV_AT_EPOCH>41812</REV_AT_EPOCH><BSTAR>.15715E-3</BSTAR><MEAN_MOTION_DOT>.524E-5</MEAN_MOTION_DOT><MEAN_MOTION_DDOT>0</MEAN_MOTION_DDOT></tleParameters></data></segment></body></omm>
<omm id="CCSDS_OMM_VERS" version="2.0">
<header><CREATION_DATE/><ORIGINATOR/></header><body><segment><metadata><OBJECT_NAME>IRIDIUM 71</OBJECT_NAME><OBJECT_ID>1998-026B</OBJECT_ID><CENTER_NAME>EARTH</CENTER_NAME><REF_FRAME>TEME</REF_FRAME><TIME_SYSTEM>UTC</TIME_SYSTEM><MEAN_ELEMENT_THEORY>SGP4</MEAN_ELEMENT_THEORY></metadata><data><meanElements><EPOCH>2025-05-11T21:14:50.196480</EPOCH><MEAN_MOTION>14.41127877</MEAN_MOTION><ECCENTRICITY>.0002297</ECCENTRICITY><INCLINATION>86.3940</INCLINATION><RA_OF_ASC_NODE>105.4601</RA_OF_ASC_NODE><ARG_OF_PERICENTER>143.2652</ARG_OF_PERICENTER><MEAN_ANOMALY>216.8706</MEAN_ANOMALY></meanElements><tleParameters><EPHEMERIS_TYPE>0</EPHEMERIS_TYPE><CLASSIFICATION_TYPE>U</CLASSIFICATION_TYPE><NORAD_CAT_ID>25320</NORAD_CAT_ID><ELEMENT_SET_NO>999</ELEMENT_SET_NO><REV_AT_EPOCH>41836</REV_AT_EPOCH><BSTAR>.14354E-3</BSTAR><MEAN_MOTION_DOT>.482E-5</MEAN_MOTION_DOT><MEAN_MOTION_DDOT>0</MEAN_MOTION_DDOT></tleParameters></data></segment></body></omm>
<omm id="CCSDS_OMM_VERS" version="2.0">
<header><CREATION_DATE/><ORIGINATOR/></header><body><segment><metadata><OBJECT_NAME>IRIDIUM 73</OBJECT_NAME><OBJECT_ID>1998-032C</OBJECT_ID><CENTER_NAME>EARTH</CENTER_NAME><REF_FRAME>TEME</REF_FRAME><TIME_SYSTEM>UTC</TIME_SYSTEM><MEAN_ELEMENT_THEORY>SGP4</MEAN_ELEMENT_THEORY></metadata><data><meanElements><EPOCH>2025-05-11T19:19:20.726400</EPOCH><MEAN_MOTION>14.51674044</MEAN_MOTION><ECCENTRICITY>.0002951</ECCENTRICITY><INCLINATION>86.4422</INCLINATION><RA_OF_ASC_NODE>62.2650</RA_OF_ASC_NODE><ARG_OF_PERICENTER>92.8553</ARG_OF_PERICENTER><MEAN_ANOMALY>267.2990</MEAN_ANOMALY></meanElements><tleParameters><EPHEMERIS_TYPE>0</EPHEMERIS_TYPE><CLASSIFICATION_TYPE>U</CLASSIFICATION_TYPE><NORAD_CAT_ID>25344</NORAD_CAT_ID><ELEMENT_SET_NO>999</ELEMENT_SET_NO><REV_AT_EPOCH>42528</REV_AT_EPOCH><BSTAR>.16383E-3</BSTAR><MEAN_MOTION_DOT>.677E-5</MEAN_MOTION_DOT><MEAN_MOTION_DDOT>0</MEAN_MOTION_DDOT></tleParameters></data></segment></body></omm>
<omm id="CCSDS_OMM_VERS" version="2.0">
<header><CREATION_DATE/><ORIGINATOR/></header><body><segment><metadata><OBJECT_NAME>IRIDIUM 82</OBJECT_NAME><OBJECT_ID>1998-051A</OBJECT_ID><CENTER_NAME>EARTH</CENTER_NAME><REF_FRAME>TEME</REF_FRAME><TIME_SYSTEM>UTC</TIME_SYSTEM><MEAN_ELEMENT_THEORY>SGP4</MEAN_ELEMENT_THEORY></metadata><data><meanElements><EPOCH>2025-05-12T11:32:31.889760</EPOCH><MEAN_MOTION>15.30419132</MEAN_MOTION><ECCENTRICITY>.0091678</ECCENTRICITY><INCLINATION>86.3646</INCLINATION><RA_OF_ASC_NODE>127.2718</RA_OF_ASC_NODE><ARG_OF_PERICENTER>73.1981</ARG_OF_PERICENTER><MEAN_ANOMALY>287.9300</MEAN_ANOMALY></meanElements><tleParameters><EPHEMERIS_TYPE>0</EPHEMERIS_TYPE><CLASSIFICATION_TYPE>U</CLASSIFICATION_TYPE><NORAD_CAT_ID>25467</NORAD_CAT_ID><ELEMENT_SET_NO>999</ELEMENT_SET_NO><REV_AT_EPOCH>41849</REV_AT_EPOCH><BSTAR>.78881E-3</BSTAR><MEAN_MOTION_DOT>.26506E-3</MEAN_MOTION_DOT><MEAN_MOTION_DDOT>0</MEAN_MOTION_DDOT></tleParameters></data></segment></body></omm>
</ndm>
